[{"OBJECT_NAME":"STARLINK-36072","OBJECT_ID":"2025-281J","EPOCH":"2026-03-09T04:24:15.195744","MEAN_MOTION":15.27591238,"ECCENTRICITY":7.699e-5,"INCLINATION":42.9959,"RA_OF_ASC_NODE":346.7232,"ARG_OF_PERICENTER":265.3751,"MEAN_ANOMALY":94.7013,"EPHEMERIS_TYPE":0,"CLASSIFICATION_TYPE":"U","NORAD_CAT_ID":66856,"ELEMENT_SET_NO":999,"REV_AT_EPOCH":1610,"BSTAR":0.0006549002,"MEAN_MOTION_DOT":0.00017809,"MEAN_MOTION_DDOT":0},{"OBJECT_NAME":"FENGYUN 1C DEB","OBJECT_ID":"1999-025EGV","EPOCH":"2026-02-28T16:17:34.017216","MEAN_MOTION":14.9983724,"ECCENTRICITY":0.01801634,"INCLINATION":98.631,"RA_OF_ASC_NODE":214.8944,"ARG_OF_PERICENTER":42.5154,"MEAN_ANOMALY":318.9857,"EPHEMERIS_TYPE":0,"CLASSIFICATION_TYPE":"U","NORAD_CAT_ID":37427,"ELEMENT_SET_NO":999,"REV_AT_EPOCH":61490,"BSTAR":0.00040638516,"MEAN_MOTION_DOT":7.014e-5,"MEAN_MOTION_DDOT":0}]
